ONEWEB-0570             
1 55149U 23004K   24076.16978020  .00000060  00000+0  11982-3 0  9994
2 55149  87.9196 139.3344 0002366 118.8842 241.2528 13.18685493 61225
ONEWEB-0571             
1 55150U 23004L   24076.16345734  .00000108  00000+0  24160-3 0  9991
2 55150  87.9197 139.3401 0001624 135.8311 224.2951 13.18687317 61237
ONEWEB-0572             
1 55151U 23004M   24076.22001577  .00000087  00000+0  19183-3 0  9998
2 55151  87.9258 169.5894 0002047 115.1168 245.0176 13.17647434 59106
ONEWEB-0588             
1 55153U 23004P   24075.61965467  .00000075  00000+0  15795-3 0  9991
2 55153  87.9201 139.4361 0002412 117.5284 242.6094 13.18687984 61157
ONEWEB-0598             
1 55154U 23004Q   24075.30677282  .00000260  00000+0  69684-3 0  9995
2 55154  87.9037 184.9077 0001251 129.5205 230.6034 13.11415688 57913
ONEWEB-0599             
1 55155U 23004R   24076.18045886  .00000073  00000+0  15487-3 0  9996
2 55155  87.9265 169.5754 0001735 105.0964 255.0360 13.17649019 59105
ONEWEB-0614             
1 55156U 23004S   24076.21746820  .00000555  00000+0  15298-2 0  9991
2 55156  87.9040 184.7304 0002292 108.1117 252.0261 13.11414865 57995
